[{"OBJECT_NAME":"STARLINK-34717","OBJECT_ID":"2025-165E","EPOCH":"2026-03-09T18:13:22.141056","MEAN_MOTION":15.05644459,"ECCENTRICITY":1.753e-5,"INCLINATION":97.603,"RA_OF_ASC_NODE":147.34,"ARG_OF_PERICENTER":167.0938,"MEAN_ANOMALY":193.0294,"EPHEMERIS_TYPE":0,"CLASSIFICATION_TYPE":"U","NORAD_CAT_ID":65060,"ELEMENT_SET_NO":999,"REV_AT_EPOCH":3480,"BSTAR":3.4347006e-5,"MEAN_MOTION_DOT":4.35e-6,"MEAN_MOTION_DDOT":0},{"OBJECT_NAME":"TITAN 4B R\/B","OBJECT_ID":"2000-047B","EPOCH":"2026-03-09T21:29:16.286496","MEAN_MOTION":15.09565128,"ECCENTRICITY":0.00386241,"INCLINATION":67.9901,"RA_OF_ASC_NODE":39.932,"ARG_OF_PERICENTER":35.1583,"MEAN_ANOMALY":325.2103,"EPHEMERIS_TYPE":0,"CLASSIFICATION_TYPE":"U","NORAD_CAT_ID":26474,"ELEMENT_SET_NO":999,"REV_AT_EPOCH":39294,"BSTAR":0.00034805691,"MEAN_MOTION_DOT":5.567e-5,"MEAN_MOTION_DDOT":0}]
